NORAD_CAT_ID,OBJECT_NAME,OBJECT_TYPE,EPOCH,MEAN_MOTION,ECCENTRICITY,INCLINATION,RA_OF_ASC_NODE,ARG_OF_PERICENTER,MEAN_ANOMALY,BSTAR,MEAN_MOTION_DOT,MEAN_MOTION_DDOT,TLE_LINE0,TLE_LINE1,TLE_LINE2,SEMIMAJOR_AXIS,PERIOD,APOGEE,PERIGEE,DECAYED
54204.0,STARLINK-5241,PAYLOAD,2023-11-06 04:34:23,15.08943016,0.0001337,53.2158,229.6844,78.907,281.2073,0.0043479,0.00069791,0.0,0 STARLINK-5241,1 54204U 22141AZ  23310.19054409  .00069791  00000-0  43479-2 0  9997,2 54204  53.2158 229.6844 0001337  78.9070 281.2073 15.08943016 57238,6917.566,95.431,540.355,538.506,0.0
54204.0,STARLINK-5241,PAYLOAD,2023-11-06 22:03:37,15.08865819,8.7e-05,53.2162,226.4127,93.8003,266.3089,0.0012668,0.00019945,0.0,0 STARLINK-5241,1 54204U 22141AZ  23310.91918084  .00019945  00000-0  12668-2 0  9997,2 54204  53.2162 226.4127 0000870  93.8003 266.3089 15.08865819 57117,6917.801,95.436,540.268,539.065,0.0
54204.0,STARLINK-5241,PAYLOAD,2023-11-07 01:14:23,15.08781002,0.0001273,53.2155,225.8192,99.8606,260.253,-0.0013349,-0.00021436,0.0,0 STARLINK-5241,1 54204U 22141AZ  23311.05166427 -.00021436  00000-0 -13349-2 0  9996,2 54204  53.2155 225.8192 0001273  99.8606 260.2530 15.08781002 57369,6918.061,95.441,540.806,539.045,0.0
54204.0,STARLINK-5241,PAYLOAD,2023-11-07 06:00:34,15.08779963,0.0001321,53.2155,224.9275,105.0612,255.0526,0.0021459,0.00033973,0.0,0 STARLINK-5241,1 54204U 22141AZ  23311.25039722  .00033973  00000-0  21459-2 0  9993,2 54204  53.2155 224.9275 0001321 105.0612 255.0526 15.08779963 57395,6918.064,95.441,540.843,539.015,0.0
54204.0,STARLINK-5241,PAYLOAD,2023-11-08 01:05:13,15.08823293,0.0001355,53.2158,221.3613,99.8348,260.2798,0.0018711,0.00029602,0.0,0 STARLINK-5241,1 54204U 22141AZ  23312.04529879  .00029602  00000-0  18711-2 0  9999,2 54204  53.2158 221.3613 0001355  99.8348 260.2798 15.08823293 57517,6917.931,95.439,540.734,538.859,0.0
54204.0,STARLINK-5241,PAYLOAD,2023-11-08 21:45:14,15.08860318,0.0001311,53.2159,217.4957,103.728,256.3859,0.0014101,0.00022237,0.0,0 STARLINK-5241,1 54204U 22141AZ  23312.90641714  .00022237  00000-0  14101-2 0  9993,2 54204  53.2159 217.4957 0001311 103.7280 256.3859 15.08860318 57419,6917.818,95.436,540.59,538.776,0.0
54204.0,STARLINK-5241,PAYLOAD,2023-11-09 04:06:46,15.08879672,0.0001355,53.2162,216.3047,95.6909,264.4238,0.0018137,0.00028726,0.0,0 STARLINK-5241,1 54204U 22141AZ  23313.17137170  .00028726  00000-0  18137-2 0  9991,2 54204  53.2162 216.3047 0001355  95.6909 264.4238 15.08879672 57689,6917.759,95.435,540.561,538.687,0.0
54204.0,STARLINK-5241,PAYLOAD,2023-11-09 21:36:01,15.08834651,6.54e-05,53.2161,213.037,109.3519,250.7544,0.00050796,7.805e-05,0.0,0 STARLINK-5241,1 54204U 22141AZ  23313.90001578  .00007805  00000-0  50796-3 0  9997,2 54204  53.2161 213.0370 0000654 109.3519 250.7544 15.08834651 57565,6917.897,95.438,540.214,539.309,0.0
54204.0,STARLINK-5241,PAYLOAD,2023-11-10 02:22:10,15.08835164,0.0001152,53.2157,212.1434,102.9531,257.1589,6.9757e-05,8.22e-06,0.0,0 STARLINK-5241,1 54204U 22141AZ  23314.09873769  .00000822  00000-0  69757-4 0  9997,2 54204  53.2157 212.1434 0001152 102.9531 257.1589 15.08835164 57827,6917.895,95.438,540.557,538.963,0.0
54204.0,STARLINK-5241,PAYLOAD,2023-11-10 10:19:06,15.08832759,0.0001192,53.2158,210.6562,95.6933,264.4195,0.00031441,4.719e-05,0.0,0 STARLINK-5241,1 54204U 22141AZ  23314.42994111  .00004719  00000-0  31441-3 0  9996,2 54204  53.2158 210.6562 0001192  95.6933 264.4195 15.08832759 57642,6917.903,95.438,540.592,538.943,0.0
54204.0,STARLINK-5241,PAYLOAD,2023-11-10 21:26:48,15.0884288,0.0001349,53.2177,208.5691,88.2384,271.8763,0.00052653,8.102e-05,0.0,0 STARLINK-5241,1 54204U 22141AZ  23314.89362079  .00008102  00000-0  52653-3 0  9997,2 54204  53.2177 208.5691 0001349  88.2384 271.8763 15.08842880 57711,6917.872,95.437,540.67,538.803,0.0
54204.0,STARLINK-5241,PAYLOAD,2023-11-11 10:09:54,15.0883788,0.0001453,53.2174,206.1944,91.3371,268.7788,0.0005237,8.056e-05,0.0,0 STARLINK-5241,1 54204U 22141AZ  23315.42354297  .00008056  00000-0  52370-3 0  9994,2 54204  53.2174 206.1944 0001453  91.3371 268.7788 15.08837880 58021,6917.887,95.438,540.757,538.747,0.0
54204.0,STARLINK-5241,PAYLOAD,2023-11-11 21:17:36,15.08837022,0.0001637,53.2157,204.1097,87.1524,272.9655,7.1316e-05,8.47e-06,0.0,0 STARLINK-5241,1 54204U 22141AZ  23315.88722390  .00000847  00000-0  71316-4 0  9999,2 54204  53.2157 204.1097 0001637  87.1524 272.9655 15.08837022 57865,6917.889,95.438,540.887,538.622,0.0
54204.0,STARLINK-5241,PAYLOAD,2023-11-11 22:52:59,15.08838454,0.0001313,53.2161,203.8155,83.5597,276.5544,0.00017321,2.47e-05,0.0,0 STARLINK-5241,1 54204U 22141AZ  23315.95346421  .00002470  00000-0  17321-3 0  9993,2 54204  53.2161 203.8155 0001313  83.5597 276.5544 15.08838454 58107,6917.885,95.438,540.658,538.842,0.0
54204.0,STARLINK-5241,PAYLOAD,2023-11-12 10:00:41,15.08844767,0.0001355,53.2161,201.7336,83.9836,276.131,0.00032045,4.816e-05,0.0,0 STARLINK-5241,1 54204U 22141AZ  23316.41714288  .00004816  00000-0  32045-3 0  9991,2 54204  53.2161 201.7336 0001355  83.9836 276.1310 15.08844767 57943,6917.866,95.437,540.668,538.793,0.0
54204.0,STARLINK-5241,PAYLOAD,2023-11-12 22:43:46,15.08854192,0.0001327,53.2157,199.3552,82.2819,277.8324,0.00065374,0.00010136,0.0,0 STARLINK-5241,1 54204U 22141AZ  23316.94706096  .00010136  00000-0  65374-3 0  9990,2 54204  53.2157 199.3552 0001327  82.2819 277.8324 15.08854192 58028,6917.837,95.437,540.62,538.784,0.0
54204.0,STARLINK-5241,PAYLOAD,2023-11-14 01:45:19,15.08850725,0.0001552,53.2159,194.299,85.0656,275.0513,0.00051902,7.984e-05,0.0,0 STARLINK-5241,1 54204U 22141AZ  23318.07314070  .00007984  00000-0  51902-3 0  9992,2 54204  53.2159 194.2990 0001552  85.0656 275.0513 15.08850725 58422,6917.848,95.437,540.786,538.639,0.0
54204.0,STARLINK-5241,PAYLOAD,2023-11-14 22:25:20,15.08842681,0.0001586,53.2161,190.4318,90.5589,269.5585,0.00016916,2.405e-05,0.0,0 STARLINK-5241,1 54204U 22141AZ  23318.93426090  .00002405  00000-0  16916-3 0  9992,2 54204  53.2161 190.4318 0001586  90.5589 269.5585 15.08842681 58328,6917.872,95.437,540.834,538.64,0.0
54204.0,STARLINK-5241,PAYLOAD,2023-11-15 22:16:07,15.08841522,0.0001339,53.2154,185.9723,88.749,271.3656,0.00012766,1.744e-05,0.0,0 STARLINK-5241,1 54204U 22141AZ  23319.92786215  .00001744  00000-0  12766-3 0  9994,2 54204  53.2154 185.9723 0001339  88.7490 271.3656 15.08841522 58474,6917.876,95.437,540.667,538.814,0.0
54204.0,STARLINK-5241,PAYLOAD,2023-11-16 01:26:53,15.08839605,0.0001291,53.2161,185.3781,87.8288,272.2852,8.8335e-05,1.118e-05,0.0,0 STARLINK-5241,1 54204U 22141AZ  23320.06034274  .00001118  00000-0  88335-4 0  9993,2 54204  53.2161 185.3781 0001291  87.8288 272.2852 15.08839605 58727,6917.882,95.438,540.64,538.853,0.0
54204.0,STARLINK-5241,PAYLOAD,2023-11-16 22:06:54,15.08837299,0.0001489,53.2173,181.5135,92.2361,267.8801,2.9082e-05,1.75e-06,0.0,0 STARLINK-5241,1 54204U 22141AZ  23320.92146507  .00000175  00000-0  29082-4 0  9997,2 54204  53.2173 181.5135 0001489  92.2361 267.8801 15.08837299 58622,6917.889,95.438,540.784,538.724,0.0
54204.0,STARLINK-5241,PAYLOAD,2023-11-17 07:39:13,15.08838324,0.0001392,53.2164,179.728,83.2309,276.8841,4.5201e-05,4.31e-06,0.0,0 STARLINK-5241,1 54204U 22141AZ  23321.31890534  .00000431  00000-0  45201-4 0  9993,2 54204  53.2164 179.7280 0001392  83.2309 276.8841 15.08838324 58913,6917.886,95.438,540.713,538.788,0.0
54204.0,STARLINK-5241,PAYLOAD,2023-11-18 13:51:33,15.08840744,0.0001404,53.2187,174.079,86.8978,273.2175,0.00012194,1.653e-05,0.0,0 STARLINK-5241,1 54204U 22141AZ  23322.57746847  .00001653  00000-0  12194-3 0  9990,2 54204  53.2187 174.0790 0001404  86.8978 273.2175 15.08840744 58872,6917.878,95.438,540.714,538.772,0.0
54204.0,STARLINK-5241,PAYLOAD,2023-11-19 13:42:20,15.08841557,0.0001505,53.2166,169.6184,86.6085,273.5079,0.0001111,1.481e-05,0.0,0 STARLINK-5241,1 54204U 22141AZ  23323.57106790  .00001481  00000-0  11110-3 0  9994,2 54204  53.2166 169.6184 0001505  86.6085 273.5079 15.08841557 59022,6917.876,95.437,540.782,538.699,0.0
54204.0,STARLINK-5241,PAYLOAD,2023-11-19 20:03:52,15.08841619,0.0001333,53.2152,168.4287,88.7014,271.4131,0.00010156,1.329e-05,0.0,0 STARLINK-5241,1 54204U 22141AZ  23323.83602714  .00001329  00000-0  10156-3 0  9990,2 54204  53.2152 168.4287 0001333  88.7014 271.4131 15.08841619 59296,6917.875,95.437,540.663,538.818,0.0
54204.0,STARLINK-5241,PAYLOAD,2023-11-20 13:33:07,15.08844315,0.0001403,53.2154,165.1574,89.0112,271.1041,5.8388e-05,6.42e-06,0.0,0 STARLINK-5241,1 54204U 22141AZ  23324.56466523  .00000642  00000-0  58388-4 0  9994,2 54204  53.2154 165.1574 0001403  89.0112 271.1041 15.08844315 59172,6917.867,95.437,540.703,538.762,0.0
54204.0,STARLINK-5241,PAYLOAD,2023-11-20 19:54:39,15.08845744,0.0001409,53.2157,163.9678,91.4586,268.6568,7.917e-05,9.72e-06,0.0,0 STARLINK-5241,1 54204U 22141AZ  23324.82962292  .00000972  00000-0  79170-4 0  9995,2 54204  53.2157 163.9678 0001409  91.4586 268.6568 15.08845744 59211,6917.863,95.437,540.703,538.753,0.0
54204.0,STARLINK-5241,PAYLOAD,2023-11-20 23:05:25,15.08846074,0.0001415,53.2157,163.3729,91.6139,268.5015,7.7091e-05,9.39e-06,0.0,0 STARLINK-5241,1 54204U 22141AZ  23324.96210195  .00000939  00000-0  77091-4 0  9991,2 54204  53.2157 163.3729 0001415  91.6139 268.5015 15.08846074 59465,6917.862,95.437,540.706,538.748,0.0
54204.0,STARLINK-5241,PAYLOAD,2023-11-21 07:02:22,15.08827366,0.0001562,53.2156,161.8864,95.6285,264.4886,-4.0505e-05,-9.32e-06,0.0,0 STARLINK-5241,1 54204U 22141AZ  23325.29331877 -.00000932  00000-0 -40505-4 0  9994,2 54204  53.2156 161.8864 0001562  95.6285 264.4886 15.08827366 59516,6917.919,95.438,540.865,538.703,0.0
54204.0,STARLINK-5241,PAYLOAD,2023-11-21 13:23:55,15.0882773,0.0001403,53.2156,160.6967,99.47,260.6451,-3.4962e-05,-8.44e-06,0.0,0 STARLINK-5241,1 54204U 22141AZ  23325.55827994 -.00000844  00000-0 -34962-4 0  9995,2 54204  53.2156 160.6967 0001403  99.4700 260.6451 15.08827730 59325,6917.918,95.438,540.753,538.812,0.0
